start=new Date('2023-04-14T00:00:00.000Z').valueOf();
sats=[{"TIME_SYSTEM":"UTC","MEAN_ANOMALY":"247.7906","SEMIMAJOR_AXIS":"6925.341","REV_AT_EPOCH":"10820","GP_ID":"230011995","DECAY_DATE":null,"OBJECT_ID":"2021-036AD","TLE_LINE2":"2 48303  53.0515 176.0719 0001355 112.3227 247.7906 15.06402596108206","REF_FRAME":"TEME","ECCENTRICITY":"0.00013550","APOAPSIS":"548.144","LAUNCH_DATE":"2021-04-29","SITE":"AFETR","CLASSIFICATION_TYPE":"U","EPOCH":"2023-04-13T08:48:13.378464","NORAD_CAT_ID":"48303","OBJECT_NAME":"STARLINK-2530","INCLINATION":"53.0515","MEAN_MOTION_DOT":"0.00024319","PERIOD":"95.592","FILE":"3886564","OBJECT_TYPE":"PAYLOAD","RA_OF_ASC_NODE":"176.0719","ELEMENT_SET_NO":"999","COUNTRY_CODE":"US","CENTER_NAME":"EARTH","MEAN_ELEMENT_THEORY":"SGP4","BSTAR":"0.00164580000000","PERIAPSIS":"546.267","TLE_LINE1":"1 48303U 21036AD  23103.36682151  .00024319  00000-0  16458-2 0  9996","RCS_SIZE":"LARGE","MEAN_MOTION":"15.06402596","MEAN_MOTION_DDOT":"0.0000000000000","ARG_OF_PERICENTER":"112.3227","EPHEMERIS_TYPE":"0"},{"FILE":"3886652","OBJECT_TYPE":"PAYLOAD","PERIOD":"95.592","INCLINATION":"53.0532","MEAN_MOTION_DOT":"0.00021389","MEAN_ELEMENT_THEORY":"SGP4","BSTAR":"0.00145040000000","COUNTRY_CODE":"US","CENTER_NAME":"EARTH","RA_OF_ASC_NODE":"175.7967","ELEMENT_SET_NO":"999","PERIAPSIS":"546.234","TLE_LINE1":"1 48304U 21036AE  23103.43043612  .00021389  00000-0  14504-2 0  9992","RCS_SIZE":"LARGE","MEAN_MOTION":"15.06400735","ARG_OF_PERICENTER":"81.3301","EPHEMERIS_TYPE":"0","MEAN_MOTION_DDOT":"0.0000000000000","TLE_LINE2":"2 48304  53.0532 175.7967 0001411  81.3301 278.7848 15.06400735108806","OBJECT_ID":"2021-036AE","DECAY_DATE":null,"SEMIMAJOR_AXIS":"6925.346","REV_AT_EPOCH":"10880","GP_ID":"230019230","TIME_SYSTEM":"UTC","MEAN_ANOMALY":"278.7848","APOAPSIS":"548.188","ECCENTRICITY":"0.00014110","REF_FRAME":"TEME","NORAD_CAT_ID":"48304","EPOCH":"2023-04-13T10:19:49.680768","CLASSIFICATION_TYPE":"U","LAUNCH_DATE":"2021-04-29","SITE":"AFETR","OBJECT_NAME":"STARLINK-2524"},{"SEMIMAJOR_AXIS":"6925.273","GP_ID":"230019565","REV_AT_EPOCH":"10881","TIME_SYSTEM":"UTC","MEAN_ANOMALY":"289.5928","OBJECT_ID":"2021-036AF","TLE_LINE2":"2 48305  53.0535 175.5065 0001533  70.5226 289.5928 15.06424734108813","DECAY_DATE":null,"ECCENTRICITY":"0.00015330","REF_FRAME":"TEME","APOAPSIS":"548.199","CLASSIFICATION_TYPE":"U","LAUNCH_DATE":"2021-04-29","SITE":"AFETR","NORAD_CAT_ID":"48305","EPOCH":"2023-04-13T11:48:41.877504","OBJECT_NAME":"STARLINK-2519","PERIOD":"95.591","INCLINATION":"53.0535","MEAN_MOTION_DOT":"0.00025053","FILE":"3886654","OBJECT_TYPE":"PAYLOAD","COUNTRY_CODE":"US","CENTER_NAME":"EARTH","RA_OF_ASC_NODE":"175.5065","ELEMENT_SET_NO":"999","MEAN_ELEMENT_THEORY":"SGP4","BSTAR":"0.00169370000000","PERIAPSIS":"546.076","TLE_LINE1":"1 48305U 21036AF  23103.49215136  .00025053  00000-0  16937-2 0  9995","RCS_SIZE":"LARGE","MEAN_MOTION":"15.06424734","EPHEMERIS_TYPE":"0","ARG_OF_PERICENTER":"70.5226","MEAN_MOTION_DDOT":"0.0000000000000"},{"FILE":"3886655","OBJECT_TYPE":"PAYLOAD","PERIOD":"95.592","INCLINATION":"53.0515","MEAN_MOTION_DOT":"0.00023999","MEAN_ELEMENT_THEORY":"SGP4","BSTAR":"0.00162420000000","COUNTRY_CODE":"US","CENTER_NAME":"EARTH","RA_OF_ASC_NODE":"175.5329","ELEMENT_SET_NO":"999","PERIAPSIS":"546.112","TLE_LINE1":"1 48306U 21036AG  23103.48941121  .00023999  00000-0  16242-2 0  9991","MEAN_MOTION":"15.06407720","RCS_SIZE":"LARGE","ARG_OF_PERICENTER":"60.1323","EPHEMERIS_TYPE":"0","MEAN_MOTION_DDOT":"0.0000000000000","TLE_LINE2":"2 48306  53.0515 175.5329 0001556  60.1323 299.9820 15.06407720108815","OBJECT_ID":"2021-036AG","DECAY_DATE":null,"SEMIMAJOR_AXIS":"6925.325","REV_AT_EPOCH":"10881","GP_ID":"230019578","TIME_SYSTEM":"UTC","MEAN_ANOMALY":"299.9820","APOAPSIS":"548.267","ECCENTRICITY":"0.00015560","REF_FRAME":"TEME","NORAD_CAT_ID":"48306","EPOCH":"2023-04-13T11:44:45.128544","CLASSIFICATION_TYPE":"U","LAUNCH_DATE":"2021-04-29","SITE":"AFETR","OBJECT_NAME":"STARLINK-2523"},{"RCS_SIZE":"LARGE","TLE_LINE1":"1 48307U 21036AH  23103.41937403  .00007780  00000-0  54047-3 0  9999","MEAN_MOTION":"15.06408742","PERIAPSIS":"546.510","MEAN_MOTION_DDOT":"0.0000000000000","EPHEMERIS_TYPE":"0","ARG_OF_PERICENTER":"98.1713","OBJECT_TYPE":"PAYLOAD","FILE":"3886661","MEAN_MOTION_DOT":"0.00007780","INCLINATION":"53.0517","PERIOD":"95.592","BSTAR":"0.00054047000000","MEAN_ELEMENT_THEORY":"SGP4","ELEMENT_SET_NO":"999","RA_OF_ASC_NODE":"175.8457","CENTER_NAME":"EARTH","COUNTRY_CODE":"US","EPOCH":"2023-04-13T10:03:53.916192","NORAD_CAT_ID":"48307","LAUNCH_DATE":"2021-04-29","SITE":"AFETR","CLASSIFICATION_TYPE":"U","OBJECT_NAME":"STARLINK-2528","DECAY_DATE":null,"TLE_LINE2":"2 48307  53.0517 175.8457 0000977  98.1713 261.9387 15.06408742108804","OBJECT_ID":"2021-036AH","MEAN_ANOMALY":"261.9387","TIME_SYSTEM":"UTC","GP_ID":"230019624","REV_AT_EPOCH":"10880","SEMIMAJOR_AXIS":"6925.322","APOAPSIS":"547.863","REF_FRAME":"TEME","ECCENTRICITY":"0.00009770"},{"APOAPSIS":"547.964","REF_FRAME":"TEME","ECCENTRICITY":"0.00012740","DECAY_DATE":null,"TLE_LINE2":"2 48308  53.0529 174.6696 0001274  72.1599 287.9528 15.06443042108846","OBJECT_ID":"2021-036AJ","MEAN_ANOMALY":"287.9528","TIME_SYSTEM":"UTC","GP_ID":"230020149","REV_AT_EPOCH":"10884","SEMIMAJOR_AXIS":"6925.217","OBJECT_NAME":"STARLINK-2532","EPOCH":"2023-04-13T16:20:42.965376","NORAD_CAT_ID":"48308","SITE":"AFETR","LAUNCH_DATE":"2021-04-29","CLASSIFICATION_TYPE":"U","BSTAR":"0.00172990000000","MEAN_ELEMENT_THEORY":"SGP4","ELEMENT_SET_NO":"999","RA_OF_ASC_NODE":"174.6696","CENTER_NAME":"EARTH","COUNTRY_CODE":"US","OBJECT_TYPE":"PAYLOAD","FILE":"3886667","MEAN_MOTION_DOT":"0.00025609","INCLINATION":"53.0529","PERIOD":"95.589","MEAN_MOTION_DDOT":"0.0000000000000","EPHEMERIS_TYPE":"0","ARG_OF_PERICENTER":"72.1599","MEAN_MOTION":"15.06443042","TLE_LINE1":"1 48308U 21036AJ  23103.68105284  .00025609  00000-0  17299-2 0  9990","RCS_SIZE":"LARGE","PERIAPSIS":"546.199"},{"MEAN_ELEMENT_THEORY":"SGP4","BSTAR":"0.00160780000000","RA_OF_ASC_NODE":"174.6847","ELEMENT_SET_NO":"999","COUNTRY_CODE":"US","CENTER_NAME":"EARTH","FILE":"3886674","OBJECT_TYPE":"PAYLOAD","INCLINATION":"53.0522","MEAN_MOTION_DOT":"0.00023780","PERIOD":"95.589","MEAN_MOTION_DDOT":"0.0000000000000","ARG_OF_PERICENTER":"99.4052","EPHEMERIS_TYPE":"0","PERIAPSIS":"546.147","MEAN_MOTION":"15.06450192","TLE_LINE1":"1 48309U 21036AK  23103.67737916  .00023780  00000-0  16078-2 0  9995","RCS_SIZE":"LARGE","APOAPSIS":"547.972","REF_FRAME":"TEME","ECCENTRICITY":"0.00013180","DECAY_DATE":null,"TLE_LINE2":"2 48309  53.0522 174.6847 0001318  99.4052 260.7086 15.06450192108845","OBJECT_ID":"2021-036AK","TIME_SYSTEM":"UTC","MEAN_ANOMALY":"260.7086","SEMIMAJOR_AXIS":"6925.195","GP_ID":"230020168","REV_AT_EPOCH":"10884","OBJECT_NAME":"STARLINK-2517","EPOCH":"2023-04-13T16:15:25.559424","NORAD_CAT_ID":"48309","SITE":"AFETR","LAUNCH_DATE":"2021-04-29","CLASSIFICATION_TYPE":"U"},{"OBJECT_NAME":"STARLINK-2536","CLASSIFICATION_TYPE":"U","SITE":"AFETR","LAUNCH_DATE":"2021-04-29","NORAD_CAT_ID":"48310","EPOCH":"2023-04-13T16:10:07.300704","ECCENTRICITY":"0.00012530","REF_FRAME":"TEME","APOAPSIS":"547.984","SEMIMAJOR_AXIS":"6925.251","REV_AT_EPOCH":"10884","GP_ID":"230019684","TIME_SYSTEM":"UTC","MEAN_ANOMALY":"260.8586","OBJECT_ID":"2021-036AL","TLE_LINE2":"2 48310  53.0534 174.7000 0001253  99.2545 260.8586 15.06431854108845","DECAY_DATE":null,"ARG_OF_PERICENTER":"99.2545","EPHEMERIS_TYPE":"0","MEAN_MOTION_DDOT":"0.0000000000000","PERIAPSIS":"546.248","RCS_SIZE":"LARGE","TLE_LINE1":"1 48310U 21036AL  23103.67369561  .00027004  00000-0  18233-2 0  9992","MEAN_MOTION":"15.06431854","COUNTRY_CODE":"US","CENTER_NAME":"EARTH","RA_OF_ASC_NODE":"174.7000","ELEMENT_SET_NO":"999","MEAN_ELEMENT_THEORY":"SGP4","BSTAR":"0.00182330000000","PERIOD":"95.590","INCLINATION":"53.0534","MEAN_MOTION_DOT":"0.00027004","FILE":"3886665","OBJECT_TYPE":"PAYLOAD"},{"APOAPSIS":"547.863","REF_FRAME":"TEME","ECCENTRICITY":"0.00011470","DECAY_DATE":null,"TLE_LINE2":"2 48311  53.0518 174.7197 0001147 103.6695 256.4422 15.06447281108899","OBJECT_ID":"2021-036AM","MEAN_ANOMALY":"256.4422","TIME_SYSTEM":"UTC","REV_AT_EPOCH":"10889","GP_ID":"230020172","SEMIMAJOR_AXIS":"6925.204","OBJECT_NAME":"STARLINK-2534","EPOCH":"2023-04-13T16:04:47.336448","NORAD_CAT_ID":"48311","LAUNCH_DATE":"2021-04-29","SITE":"AFETR","CLASSIFICATION_TYPE":"U","BSTAR":"0.00183460000000","MEAN_ELEMENT_THEORY":"SGP4","ELEMENT_SET_NO":"999","RA_OF_ASC_NODE":"174.7197","CENTER_NAME":"EARTH","COUNTRY_CODE":"US","OBJECT_TYPE":"PAYLOAD","FILE":"3886668","MEAN_MOTION_DOT":"0.00027186","INCLINATION":"53.0518","PERIOD":"95.589","MEAN_MOTION_DDOT":"0.0000000000000","ARG_OF_PERICENTER":"103.6695","EPHEMERIS_TYPE":"0","TLE_LINE1":"1 48311U 21036AM  23103.66999232  .00027186  00000-0  18346-2 0  9992","RCS_SIZE":"LARGE","MEAN_MOTION":"15.06447281","PERIAPSIS":"546.274"},{"COUNTRY_CODE":"US","CENTER_NAME":"EARTH","RA_OF_ASC_NODE":"175.9285","ELEMENT_SET_NO":"999","MEAN_ELEMENT_THEORY":"SGP4","BSTAR":"0.00171510000000","PERIOD":"95.592","INCLINATION":"53.0526","MEAN_MOTION_DOT":"0.00025357","FILE":"3886564","OBJECT_TYPE":"PAYLOAD","EPHEMERIS_TYPE":"0","ARG_OF_PERICENTER":"85.0382","MEAN_MOTION_DDOT":"0.0000000000000","PERIAPSIS":"546.330","TLE_LINE1":"1 48312U 21036AN  23103.40094791  .00025357  00000-0  17151-2 0  9992","MEAN_MOTION":"15.06399834","RCS_SIZE":"LARGE","ECCENTRICITY":"0.00012770","REF_FRAME":"TEME","APOAPSIS":"548.098","SEMIMAJOR_AXIS":"6925.349","REV_AT_EPOCH":"10821","GP_ID":"230011746","TIME_SYSTEM":"UTC","MEAN_ANOMALY":"275.0753","TLE_LINE2":"2 48312  53.0526 175.9285 0001277  85.0382 275.0753 15.06399834108210","OBJECT_ID":"2021-036AN","DECAY_DATE":null,"OBJECT_NAME":"STARLINK-2061","CLASSIFICATION_TYPE":"U","SITE":"AFETR","LAUNCH_DATE":"2021-04-29","NORAD_CAT_ID":"48312","EPOCH":"2023-04-13T09:37:21.899424"}];
